{"type": "FeatureCollection", "features": [ {"type": "Feature", "properties": {"norad_id": 66639, "name": "STARLINK-35908", "group": "last-30-days", "lat": -53.095889985570196, "lon": 105.56837336840634, "alt_km": 391.9107666308837, "timestamp": "2025-12-10T07:43:53.550202+00:00", "meta": {"OBJECT_NAME": "STARLINK-35908", "OBJECT_ID": "2025-271Y", "EPOCH": "2025-12-09T20:00:01.999008", "MEAN_MOTION": 15.62630641, "ECCENTRICITY": 8.61e-05, "INCLINATION": 53.1596, "RA_OF_ASC_NODE": 201.1843, "ARG_OF_PERICENTER": 93.4201, "MEAN_ANOMALY": 305.3103, "EPHEMERIS_TYPE": 0, "CLASSIFICATION_TYPE": "U", "NORAD_CAT_ID": 66639, "ELEMENT_SET_NO": 999, "REV_AT_EPOCH": 377, "BSTAR": -0.025415, "MEAN_MOTION_DOT": -0.02031013, "MEAN_MOTION_DDOT": 0}, "tle": {"line1": "1 66639U 25271Y   25343.83335647 -.02031013  00000+0 -25415-1 0  9992", "line2": "2 66639  53.1596 201.1843 0000861  93.4201 305.3103 15.62630641  3770"}}, "geometry": {"type": "Point", "coordinates": [105.56837336840634, -53.095889985570196]}}, {"type": "Feature", "properties": {"norad_id": 66640, "name": "STARLINK-35921", "group": "last-30-days", "lat": -53.13994482159798, "lon": 108.75074306697387, "alt_km": 391.8875584319021, "timestamp": "2025-12-10T07:43:53.550212+00:00", "meta": {"OBJECT_NAME": "STARLINK-35921", "OBJECT_ID": "2025-271Z", "EPOCH": "2025-12-09T20:00:01.999008", "MEAN_MOTION": 15.62631742, "ECCENTRICITY": 8.1e-05, "INCLINATION": 53.1598, "RA_OF_ASC_NODE": 201.1806, "ARG_OF_PERICENTER": 99.4538, "MEAN_ANOMALY": 301.1925, "EPHEMERIS_TYPE": 0, "CLASSIFICATION_TYPE": "U", "NORAD_CAT_ID": 66640, "ELEMENT_SET_NO": 999, "REV_AT_EPOCH": 377, "BSTAR": -0.025447, "MEAN_MOTION_DOT": -0.02033297, "MEAN_MOTION_DDOT": 0}, "tle": {"line1": "1 66640U 25271Z   25343.83335647 -.02033297  00000+0 -25447-1 0  9995", "line2": "2 66640  53.1598 201.1806 0000810  99.4538 301.1925 15.62631742  3775"}}, "geometry": {"type": "Point", "coordinates": [108.75074306697387, -53.13994482159798]}}, {"type": "Feature", "properties": {"norad_id": 66641, "name": "STARLINK-35923", "group": "last-30-days", "lat": -52.46927178747534, "lon": 121.35793411443278, "alt_km": 391.86961350121055, "timestamp": "2025-12-10T07:43:53.550224+00:00", "meta": {"OBJECT_NAME": "STARLINK-35923", "OBJECT_ID": "2025-271AA", "EPOCH": "2025-12-09T20:00:01.999008", "MEAN_MOTION": 15.6262931, "ECCENTRICITY": 8.42e-05, "INCLINATION": 53.1591, "RA_OF_ASC_NODE": 201.1633, "ARG_OF_PERICENTER": 99.144, "MEAN_ANOMALY": 309.1699, "EPHEMERIS_TYPE": 0, "CLASSIFICATION_TYPE": "U", "NORAD_CAT_ID": 66641, "ELEMENT_SET_NO": 999, "REV_AT_EPOCH": 377, "BSTAR": -0.025391, "MEAN_MOTION_DOT": -0.0202925, "MEAN_MOTION_DDOT": 0}, "tle": {"line1": "1 66641U 25271AA  25343.83335647 -.02029250  00000+0 -25391-1 0  9998", "line2": "2 66641  53.1591 201.1633 0000842  99.1440 309.1699 15.62629310  3775"}}, "geometry": {"type": "Point", "coordinates": [121.35793411443278, -52.46927178747534]}}, {"type": "Feature", "properties": {"norad_id": 66642, "name": "STARLINK-35926", "group": "last-30-days", "lat": -52.7622335394583, "lon": 118.24692449425932, "alt_km": 391.85690441044335, "timestamp": "2025-12-10T07:43:53.550234+00:00", "meta": {"OBJECT_NAME": "STARLINK-35926", "OBJECT_ID": "2025-271AB", "EPOCH": "2025-12-09T20:00:01.999008", "MEAN_MOTION": 15.62633278, "ECCENTRICITY": 8.49e-05, "INCLINATION": 53.1593, "RA_OF_ASC_NODE": 201.1683, "ARG_OF_PERICENTER": 89.6799, "MEAN_ANOMALY": 316.7161, "EPHEMERIS_TYPE": 0, "CLASSIFICATION_TYPE": "U", "NORAD_CAT_ID": 66642, "ELEMENT_SET_NO": 999, "REV_AT_EPOCH": 353, "BSTAR": -0.02546, "MEAN_MOTION_DOT": -0.02034311, "MEAN_MOTION_DDOT": 0}, "tle": {"line1": "1 66642U 25271AB  25343.83335647 -.02034311  00000+0 -25460-1 0  9990", "line2": "2 66642  53.1593 201.1683 0000849  89.6799 316.7161 15.62633278  3531"}}, "geometry": {"type": "Point", "coordinates": [118.24692449425932, -52.7622335394583]}}, {"type": "Feature", "properties": {"norad_id": 66643, "name": "STARLINK-35918", "group": "last-30-days", "lat": -53.098686910681906, "lon": 111.93368948443724, "alt_km": 391.89320074764146, "timestamp": "2025-12-10T07:43:53.550244+00:00", "meta": {"OBJECT_NAME": "STARLINK-35918", "OBJECT_ID": "2025-271AC", "EPOCH": "2025-12-09T20:00:01.999008", "MEAN_MOTION": 15.62632715, "ECCENTRICITY": 8.29e-05, "INCLINATION": 53.1598, "RA_OF_ASC_NODE": 201.1768, "ARG_OF_PERICENTER": 99.712, "MEAN_ANOMALY": 302.8489, "EPHEMERIS_TYPE": 0, "CLASSIFICATION_TYPE": "U", "NORAD_CAT_ID": 66643, "ELEMENT_SET_NO": 999, "REV_AT_EPOCH": 377, "BSTAR": -0.025439, "MEAN_MOTION_DOT": -0.02032813, "MEAN_MOTION_DDOT": 0}, "tle": {"line1": "1 66643U 25271AC  25343.83335647 -.02032813  00000+0 -25439-1 0  9992", "line2": "2 66643  53.1598 201.1768 0000829  99.7120 302.8489 15.62632715  3779"}}, "geometry": {"type": "Point", "coordinates": [111.93368948443724, -53.098686910681906]}}, {"type": "Feature", "properties": {"norad_id": 66644, "name": "STARLINK-35938", "group": "last-30-days", "lat": -52.97238122524739, "lon": 115.10397739077068, "alt_km": 391.89415193891637, "timestamp": "2025-12-10T07:43:53.550253+00:00", "meta": {"OBJECT_NAME": "STARLINK-35938", "OBJECT_ID": "2025-271AD", "EPOCH": "2025-12-09T20:00:01.999008", "MEAN_MOTION": 15.62630056, "ECCENTRICITY": 8.38e-05, "INCLINATION": 53.1596, "RA_OF_ASC_NODE": 201.1725, "ARG_OF_PERICENTER": 101.1226, "MEAN_ANOMALY": 303.3569, "EPHEMERIS_TYPE": 0, "CLASSIFICATION_TYPE": "U", "NORAD_CAT_ID": 66644, "ELEMENT_SET_NO": 999, "REV_AT_EPOCH": 377, "BSTAR": -0.025404, "MEAN_MOTION_DOT": -0.02030194, "MEAN_MOTION_DDOT": 0}, "tle": {"line1": "1 66644U 25271AD  25343.83335647 -.02030194  00000+0 -25404-1 0  9995", "line2": "2 66644  53.1596 201.1725 0000838 101.1226 303.3569 15.62630056  3777"}}, "geometry": {"type": "Point", "coordinates": [115.10397739077068, -52.97238122524739]}}, {"type": "Feature", "properties": {"norad_id": 66645, "name": "SHENZHOU-22", "group": "last-30-days", "lat": -32.361704759897535, "lon": -102.76387703935063, "alt_km": 397.57388196429474, "timestamp": "2025-12-10T07:43:53.550266+00:00", "meta": {"OBJECT_NAME": "SHENZHOU-22", "OBJECT_ID": "2025-272A", "EPOCH": "2025-12-09T13:49:14.456064", "MEAN_MOTION": 15.58965688, "ECCENTRICITY": 0.00089597, "INCLINATION": 41.4682, "RA_OF_ASC_NODE": 35.9133, "ARG_OF_PERICENTER": 5.1145, "MEAN_ANOMALY": 354.9784, "EPHEMERIS_TYPE": 0, "CLASSIFICATION_TYPE": "U", "NORAD_CAT_ID": 66645, "ELEMENT_SET_NO": 999, "REV_AT_EPOCH": 26300, "BSTAR": 0.00041052725, "MEAN_MOTION_DOT": 0.00032682, "MEAN_MOTION_DDOT": 0}, "tle": {"line1": "1 66645U 25272A   25343.57586176  .00032682  00000+0  41053-3 0  9993", "line2": "2 66645  41.4682  35.9133 0008959   5.1145 354.9784 15.58965688263007"}}, "geometry": {"type": "Point", "coordinates": [-102.76387703935063, -32.361704759897535]}}, {"type": "Feature", "properties": {"norad_id": 66647, "name": "COSMOS 2597 (RODNIK-S 22)", "group": "last-30-days", "lat": 73.15779629141154, "lon": 82.15134395764382, "alt_km": 1497.4919219230896, "timestamp": "2025-12-10T07:43:53.550276+00:00", "meta": {"OBJECT_NAME": "COSMOS 2597 (RODNIK-S 22)", "OBJECT_ID": "2025-273A", "EPOCH": "2025-12-09T21:30:01.540224", "MEAN_MOTION": 12.41951253, "ECCENTRICITY": 0.0007949, "INCLINATION": 82.4985, "RA_OF_ASC_NODE": 288.215, "ARG_OF_PERICENTER": 295.9521, "MEAN_ANOMALY": 64.0739, "EPHEMERIS_TYPE": 0, "CLASSIFICATION_TYPE": "U", "NORAD_CAT_ID": 66647, "ELEMENT_SET_NO": 999, "REV_AT_EPOCH": 178, "BSTAR": 0.00021385, "MEAN_MOTION_DOT": 3.9e-07, "MEAN_MOTION_DDOT": 0}, "tle": {"line1": "1 66647U 25273A   25343.89585116  .00000039  00000+0  21385-3 0  9991", "line2": "2 66647  82.4985 288.2150 0007949 295.9521  64.0739 12.41951253  1783"}}, "geometry": {"type": "Point", "coordinates": [82.15134395764382, 73.15779629141154]}}, {"type": "Feature", "properties": {"norad_id": 66648, "name": "COSMOS 2598 (RODNIK-S 23)", "group": "last-30-days", "lat": 49.01184393682477, "lon": 99.23746952970411, "alt_km": 1493.3813496487173, "timestamp": "2025-12-10T07:43:53.550286+00:00", "meta": {"OBJECT_NAME": "COSMOS 2598 (RODNIK-S 23)", "OBJECT_ID": "2025-273B", "EPOCH": "2025-12-09T21:22:18.991776", "MEAN_MOTION": 12.42861553, "ECCENTRICITY": 0.0007265, "INCLINATION": 82.5026, "RA_OF_ASC_NODE": 288.2219, "ARG_OF_PERICENTER": 258.0832, "MEAN_ANOMALY": 101.9434, "EPHEMERIS_TYPE": 0, "CLASSIFICATION_TYPE": "U", "NORAD_CAT_ID": 66648, "ELEMENT_SET_NO": 999, "REV_AT_EPOCH": 178, "BSTAR": -6.6757e-05, "MEAN_MOTION_DOT": 1e-08, "MEAN_MOTION_DDOT": 0}, "tle": {"line1": "1 66648U 25273B   25343.89049759  .00000001  00000+0 -66757-4 0  9993", "line2": "2 66648  82.5026 288.2219 0007265 258.0832 101.9434 12.42861553  1780"}}, "geometry": {"type": "Point", "coordinates": [99.23746952970411, 49.01184393682477]}}, {"type": "Feature", "properties": {"norad_id": 66649, "name": "COSMOS 2599 (RODNIK-S 24)", "group": "last-30-days", "lat": 82.48819184672524, "lon": 20.992814208288895, "alt_km": 1497.31554847404, "timestamp": "2025-12-10T07:43:53.550325+00:00", "meta": {"OBJECT_NAME": "COSMOS 2599 (RODNIK-S 24)", "OBJECT_ID": "2025-273C", "EPOCH": "2025-12-09T19:38:36.657312", "MEAN_MOTION": 12.41671818, "ECCENTRICITY": 0.0008162, "INCLINATION": 82.5025, "RA_OF_ASC_NODE": 288.2783, "ARG_OF_PERICENTER": 306.6878, "MEAN_ANOMALY": 53.345, "EPHEMERIS_TYPE": 0, "CLASSIFICATION_TYPE": "U", "NORAD_CAT_ID": 66649, "ELEMENT_SET_NO": 999, "REV_AT_EPOCH": 177, "BSTAR": 0.00015914, "MEAN_MOTION_DOT": 3.1e-07, "MEAN_MOTION_DDOT": 0}, "tle": {"line1": "1 66649U 25273C   25343.81847983  .00000031  00000+0  15914-3 0  9991", "line2": "2 66649  82.5025 288.2783 0008162 306.6878  53.3450 12.41671818  1772"}}, "geometry": {"type": "Point", "coordinates": [20.992814208288895, 82.48819184672524]}}]}